OBJECT_NAME,OBJECT_ID,EPOCH,MEAN_MOTION,ECCENTRICITY,INCLINATION,RA_OF_ASC_NODE,ARG_OF_PERICENTER,MEAN_ANOMALY,EPHEMERIS_TYPE,CLASSIFICATION_TYPE,NORAD_CAT_ID,ELEMENT_SET_NO,REV_AT_EPOCH,BSTAR,MEAN_MOTION_DOT,MEAN_MOTION_DDOT
SUOMI NPP,2011-061A,2026-05-19T07:12:18.905184,14.19510654,.00027434,98.7945,80.3758,63.2932,296.8525,0,U,37849,999,75434,.43619876E-4,.48E-6,0
YAOGAN-12,2011-066B,2026-05-19T06:57:35.256096,15.26192394,.00088637,97.1159,179.2217,338.9990,21.0884,0,U,37875,999,80763,.71846566E-4,.1791E-4,0
BEIDOU-2 M4,2012-018B,2026-05-17T12:20:37.392288,1.86229518,.00109291,55.6853,305.1252,280.3706,79.4822,0,U,38251,999,9537,0,-.55E-6,0
ARIRANG-3 (KOMPSAT-3),2012-025B,2026-05-19T06:59:52.055808,14.62177653,.00048737,98.1155,97.2542,190.8854,169.2242,0,U,38338,999,74712,.54827634E-4,.229E-5,0
METOP-B,2012-049A,2026-05-19T06:12:31.975488,14.21423939,.00034548,98.6523,191.3322,80.3962,279.7606,0,U,38771,999,70915,.49317703E-4,.64E-6,0
SJ-9A,2012-056A,2026-05-19T06:23:40.117056,14.85407471,.00254764,97.6694,112.2693,356.3258,3.7767,0,U,38860,999,69529,.12270894E-3,.101E-4,0
COSMOS 2484 (RODNIK-S 6),2013-001C,2026-05-19T05:58:21.211968,12.42938546,.00275529,82.5033,239.8813,97.6230,262.7981,0,U,39059,999,60496,.11614908E-2,.171E-5,0
SARAL,2013-009A,2026-05-19T06:29:39.554016,14.32848160,.00023514,98.5559,326.2042,40.6353,319.5006,0,U,39086,999,69146,.30743757E-4,.4E-6,0
STRAND-1,2013-009E,2026-05-19T00:33:54.873792,14.37144285,.00078408,98.3916,319.9771,325.2771,34.7904,0,U,39090,999,69287,.67750228E-4,.159E-5,0
BRITE-AUSTRIA,2013-009F,2026-05-19T00:34:24.751776,14.36529341,.00095562,98.3987,319.1827,333.7343,26.3358,0,U,39091,999,69286,.48733638E-4,.1E-5,0
GAOFEN-1,2013-018A,2026-05-19T07:54:39.741696,14.76539699,.00170968,97.9102,211.9816,4.2533,355.8820,0,U,39150,999,70398,.3679748E-5,-.25E-6,0
NEE-01 PEGASO,2013-018B,2026-05-19T07:46:39.950400,14.93499567,.00113636,98.1186,282.5303,257.4653,102.5294,0,U,39151,999,70639,.13381403E-3,.1348E-4,0
PROBA-V,2013-021A,2026-05-19T05:34:08.974848,14.23590261,.00035238,98.3573,119.2710,201.7827,158.3203,0,U,39159,999,67699,.33128991E-4,.34E-6,0
GONETS-M 5,2013-048A,2026-05-19T07:07:45.353280,12.42890762,.00156855,82.4846,1.3968,277.7230,82.2068,0,U,39249,999,57529,-.61580458E-3,-.76E-6,0
GONETS-M 7,2013-048C,2026-05-19T06:15:10.542816,12.42913797,.00165003,82.4915,4.3263,279.1225,80.7987,0,U,39251,999,57524,-.83716023E-4,-.2E-7,0
FENGYUN 3C,2013-052A,2026-05-19T06:42:37.903968,14.15747587,.00158178,98.4966,114.4851,105.2447,255.0478,0,U,39260,999,65447,.34139417E-4,.26E-6,0
CASSIOPE,2013-055A,2026-05-19T06:30:45.159264,15.22871453,.03003892,80.9145,101.7645,159.3275,202.0425,0,U,39265,999,66326,.26070145E-3,.23057E-3,-.687811E-6
APRIZESAT 7,2013-066A,2026-05-19T07:21:34.871904,14.91491441,.00346256,97.7693,92.9463,308.8199,50.9929,0,U,39416,999,67692,.67792249E-4,.628E-5,0
ZACUBE-1 (TSHEPISOSAT),2013-066B,2026-05-19T03:26:33.806976,15.00943817,.0041065,97.8123,101.3230,350.4398,9.6039,0,U,39417,999,67637,.23244993E-3,.2951E-4,0
APRIZESAT 8,2013-066K,2026-05-19T02:01:00.757056,14.87582726,.00466095,97.8207,86.9626,23.5407,336.7929,0,U,39425,999,67534,.81928379E-4,.702E-5,0
