SUOMI NPP               
1 37849U 11061A   26139.30021881  .00000048  00000+0  43620-4 0  9994
2 37849  98.7945  80.3758 0002743  63.2932 296.8525 14.19510654754343
YAOGAN-12               
1 37875U 11066B   26139.28999139  .00001791  00000+0  71847-4 0  9993
2 37875  97.1159 179.2217 0008863 338.9990  21.0884 15.26192394807638
BEIDOU-2 M4             
1 38251U 12018B   26137.51432167 -.00000055  00000+0  00000+0 0  9998
2 38251  55.6853 305.1252 0010929 280.3706  79.4822  1.86229518 95376
ARIRANG-3 (KOMPSAT-3)   
1 38338U 12025B   26139.29157472  .00000229  00000+0  54828-4 0  9996
2 38338  98.1155  97.2542 0004873 190.8854 169.2242 14.62177653747121
METOP-B                 
1 38771U 12049A   26139.25870342  .00000064  00000+0  49318-4 0  9992
2 38771  98.6523 191.3322 0003454  80.3962 279.7606 14.21423939709153
SJ-9A                   
1 38860U 12056A   26139.26643654  .00001010  00000+0  12271-3 0  9993
2 38860  97.6694 112.2693 0025476 356.3258   3.7767 14.85407471695290
COSMOS 2484 (RODNIK-S 6)
1 39059U 13001C   26139.24885662  .00000171  00000+0  11615-2 0  9997
2 39059  82.5033 239.8813 0027552  97.6230 262.7981 12.42938546604965
SARAL                   
1 39086U 13009A   26139.27059669  .00000040  00000+0  30744-4 0  9999
2 39086  98.5559 326.2042 0002351  40.6353 319.5006 14.32848160691467
STRAND-1                
1 39090U 13009E   26139.02355178  .00000159  00000+0  67750-4 0  9999
2 39090  98.3916 319.9771 0007840 325.2771  34.7904 14.37144285692870
BRITE-AUSTRIA           
1 39091U 13009F   26139.02389759  .00000100  00000+0  48734-4 0  9999
2 39091  98.3987 319.1827 0009556 333.7343  26.3358 14.36529341692866
GAOFEN-1                
1 39150U 13018A   26139.32962664 -.00000025  00000+0  36797-5 0  9994
2 39150  97.9102 211.9816 0017096   4.2533 355.8820 14.76539699703983
NEE-01 PEGASO           
1 39151U 13018B   26139.32407350  .00001348  00000+0  13381-3 0  9991
2 39151  98.1186 282.5303 0011363 257.4653 102.5294 14.93499567706398
PROBA-V                 
1 39159U 13021A   26139.23204832  .00000034  00000+0  33129-4 0  9997
2 39159  98.3573 119.2710 0003523 201.7827 158.3203 14.23590261676997
GONETS-M 5              
1 39249U 13048A   26139.29705270 -.00000076  00000+0 -61580-3 0  9993
2 39249  82.4846   1.3968 0015685 277.7230  82.2068 12.42890762575296
GONETS-M 7              
1 39251U 13048C   26139.26053869 -.00000002  00000+0 -83716-4 0  9998
2 39251  82.4915   4.3263 0016500 279.1225  80.7987 12.42913797575246
FENGYUN 3C              
1 39260U 13052A   26139.27960537  .00000026  00000+0  34139-4 0  9992
2 39260  98.4966 114.4851 0015817 105.2447 255.0478 14.15747587654479
CASSIOPE                
1 39265U 13055A   26139.27135601  .00023057 -68781-6  26070-3 0  9997
2 39265  80.9145 101.7645 0300389 159.3275 202.0425 15.22871453663269
APRIZESAT 7             
1 39416U 13066A   26139.30665361  .00000628  00000+0  67792-4 0  9990
2 39416  97.7693  92.9463 0034625 308.8199  50.9929 14.91491441676929
ZACUBE-1 (TSHEPISOSAT)  
1 39417U 13066B   26139.14344684  .00002951  00000+0  23245-3 0  9990
2 39417  97.8123 101.3230 0041065 350.4398   9.6039 15.00943817676378
APRIZESAT 8             
1 39425U 13066K   26139.08403654  .00000702  00000+0  81928-4 0  9990
2 39425  97.8207  86.9626 0046609  23.5407 336.7929 14.87582726675345
